start=new Date('2022-05-03T00:00:00.000Z').valueOf();
sats=[{"RA_OF_ASC_NODE":"312.2852","NORAD_CAT_ID":"46061","OBJECT_TYPE":"PAYLOAD","RCS_SIZE":"LARGE","INCLINATION":"53.0546","DECAY_DATE":null,"REV_AT_EPOCH":"9698","ELEMENT_SET_NO":"999","MEAN_MOTION":"15.06379279","MEAN_MOTION_DOT":"-0.00002920","SITE":"AFETR","SEMIMAJOR_AXIS":"6925.412","TLE_LINE2":"2 46061  53.0546 312.2852 0001476  71.1297 288.9851 15.06379279 96982","GP_ID":"202554635","PERIOD":"95.593","APOAPSIS":"548.299","LAUNCH_DATE":"2020-08-07","MEAN_ANOMALY":"288.9851","EPOCH":"2022-05-02T19:48:19.961856","EPHEMERIS_TYPE":"0","MEAN_ELEMENT_THEORY":"SGP4","OBJECT_NAME":"STARLINK-1573","TLE_LINE1":"1 46061U 20055AL  22122.82523104 -.00002920  00000-0 -17729-3 0  9997","TIME_SYSTEM":"UTC","REF_FRAME":"TEME","COUNTRY_CODE":"US","CENTER_NAME":"EARTH","PERIAPSIS":"546.255","ARG_OF_PERICENTER":"71.1297","FILE":"3426306","BSTAR":"-0.00017729000000","CLASSIFICATION_TYPE":"U","OBJECT_ID":"2020-055AL","ECCENTRICITY":"0.00014760","MEAN_MOTION_DDOT":"0.0000000000000"},{"OBJECT_NAME":"STARLINK-1574","TLE_LINE1":"1 46062U 20055AM  22122.79205966  .00000663  00000-0  63383-4 0  9995","TIME_SYSTEM":"UTC","CENTER_NAME":"EARTH","COUNTRY_CODE":"US","REF_FRAME":"TEME","PERIAPSIS":"546.167","ARG_OF_PERICENTER":"70.8546","FILE":"3426306","BSTAR":"0.00006338300000","CLASSIFICATION_TYPE":"U","OBJECT_ID":"2020-055AM","ECCENTRICITY":"0.00015420","MEAN_MOTION_DDOT":"0.0000000000000","RA_OF_ASC_NODE":"312.4279","NORAD_CAT_ID":"46062","OBJECT_TYPE":"PAYLOAD","RCS_SIZE":"LARGE","DECAY_DATE":null,"ELEMENT_SET_NO":"999","REV_AT_EPOCH":"9694","MEAN_MOTION":"15.06393011","INCLINATION":"53.0544","SITE":"AFETR","MEAN_MOTION_DOT":"0.00000663","TLE_LINE2":"2 46062  53.0544 312.4279 0001542  70.8546 289.2610 15.06393011 96946","SEMIMAJOR_AXIS":"6925.370","GP_ID":"202554881","PERIOD":"95.593","APOAPSIS":"548.303","LAUNCH_DATE":"2020-08-07","MEAN_ANOMALY":"289.2610","EPHEMERIS_TYPE":"0","EPOCH":"2022-05-02T19:00:33.954624","MEAN_ELEMENT_THEORY":"SGP4"},{"FILE":"3426306","ARG_OF_PERICENTER":"82.4753","MEAN_MOTION_DDOT":"0.0000000000000","OBJECT_ID":"2020-055AN","ECCENTRICITY":"0.00013150","CLASSIFICATION_TYPE":"U","BSTAR":"-0.00003456700000","TIME_SYSTEM":"UTC","TLE_LINE1":"1 46063U 20055AN  22122.78837770 -.00000796  00000-0 -34567-4 0  9990","OBJECT_NAME":"STARLINK-1577","PERIAPSIS":"546.365","COUNTRY_CODE":"US","CENTER_NAME":"EARTH","REF_FRAME":"TEME","APOAPSIS":"548.186","PERIOD":"95.593","TLE_LINE2":"2 46063  53.0561 312.4521 0001315  82.4753 277.6386 15.06379877 96971","GP_ID":"202553635","SEMIMAJOR_AXIS":"6925.410","MEAN_ELEMENT_THEORY":"SGP4","EPOCH":"2022-05-02T18:55:15.833280","EPHEMERIS_TYPE":"0","MEAN_ANOMALY":"277.6386","LAUNCH_DATE":"2020-08-07","RCS_SIZE":"LARGE","NORAD_CAT_ID":"46063","OBJECT_TYPE":"PAYLOAD","RA_OF_ASC_NODE":"312.4521","MEAN_MOTION_DOT":"-0.00000796","SITE":"AFETR","DECAY_DATE":null,"REV_AT_EPOCH":"9697","ELEMENT_SET_NO":"999","MEAN_MOTION":"15.06379877","INCLINATION":"53.0561"},{"PERIAPSIS":"546.133","COUNTRY_CODE":"US","CENTER_NAME":"EARTH","REF_FRAME":"TEME","TLE_LINE1":"1 46064U 20055AP  22122.82155873  .00001191  00000-0  98863-4 0  9990","TIME_SYSTEM":"UTC","OBJECT_NAME":"STARLINK-1583","MEAN_MOTION_DDOT":"0.0000000000000","ECCENTRICITY":"0.00016430","OBJECT_ID":"2020-055AP","CLASSIFICATION_TYPE":"U","BSTAR":"0.00009886300000","FILE":"3426306","ARG_OF_PERICENTER":"67.8377","MEAN_MOTION_DOT":"0.00001191","SITE":"AFETR","MEAN_MOTION":"15.06381409","DECAY_DATE":null,"REV_AT_EPOCH":"9698","ELEMENT_SET_NO":"999","INCLINATION":"53.0550","RCS_SIZE":"LARGE","OBJECT_TYPE":"PAYLOAD","NORAD_CAT_ID":"46064","RA_OF_ASC_NODE":"312.2996","MEAN_ELEMENT_THEORY":"SGP4","EPHEMERIS_TYPE":"0","EPOCH":"2022-05-02T19:43:02.674272","MEAN_ANOMALY":"292.2787","LAUNCH_DATE":"2020-08-07","APOAPSIS":"548.408","PERIOD":"95.593","GP_ID":"202553885","TLE_LINE2":"2 46064  53.0550 312.2996 0001643  67.8377 292.2787 15.06381409 96980","SEMIMAJOR_AXIS":"6925.406"},{"RA_OF_ASC_NODE":"292.3188","OBJECT_TYPE":"PAYLOAD","NORAD_CAT_ID":"46065","RCS_SIZE":"LARGE","ELEMENT_SET_NO":"999","DECAY_DATE":null,"REV_AT_EPOCH":"9724","MEAN_MOTION":"15.06388173","INCLINATION":"53.0555","SITE":"AFETR","MEAN_MOTION_DOT":"-0.00000735","GP_ID":"202554135","TLE_LINE2":"2 46065  53.0555 292.3188 0001267  73.5160 286.5968 15.06388173 97245","SEMIMAJOR_AXIS":"6925.385","PERIOD":"95.593","APOAPSIS":"548.127","LAUNCH_DATE":"2020-08-07","MEAN_ANOMALY":"286.5968","EPHEMERIS_TYPE":"0","EPOCH":"2022-05-02T19:33:42.777216","MEAN_ELEMENT_THEORY":"SGP4","OBJECT_NAME":"STARLINK-1515","TIME_SYSTEM":"UTC","TLE_LINE1":"1 46065U 20055AQ  22122.81507844 -.00000735  00000-0 -30489-4 0  9994","COUNTRY_CODE":"US","CENTER_NAME":"EARTH","REF_FRAME":"TEME","PERIAPSIS":"546.372","ARG_OF_PERICENTER":"73.5160","FILE":"3426306","BSTAR":"-0.00003048900000","CLASSIFICATION_TYPE":"U","ECCENTRICITY":"0.00012670","OBJECT_ID":"2020-055AQ","MEAN_MOTION_DDOT":"0.0000000000000"},{"RCS_SIZE":"LARGE","OBJECT_TYPE":"PAYLOAD","NORAD_CAT_ID":"46066","RA_OF_ASC_NODE":"292.3093","SITE":"AFETR","MEAN_MOTION_DOT":"-0.00000639","DECAY_DATE":null,"ELEMENT_SET_NO":"999","REV_AT_EPOCH":"9725","INCLINATION":"53.0545","MEAN_MOTION":"15.06384233","APOAPSIS":"548.412","PERIOD":"95.593","TLE_LINE2":"2 46066  53.0545 292.3093 0001661  67.4009 292.7155 15.06384233 97253","SEMIMAJOR_AXIS":"6925.397","GP_ID":"202554381","MEAN_ELEMENT_THEORY":"SGP4","EPOCH":"2022-05-02T19:40:23.233440","EPHEMERIS_TYPE":"0","MEAN_ANOMALY":"292.7155","LAUNCH_DATE":"2020-08-07","TIME_SYSTEM":"UTC","TLE_LINE1":"1 46066U 20055AR  22122.81971335 -.00000639  00000-0 -23989-4 0  9995","OBJECT_NAME":"STARLINK-1525","PERIAPSIS":"546.112","COUNTRY_CODE":"US","CENTER_NAME":"EARTH","REF_FRAME":"TEME","FILE":"3426306","ARG_OF_PERICENTER":"67.4009","MEAN_MOTION_DDOT":"0.0000000000000","OBJECT_ID":"2020-055AR","ECCENTRICITY":"0.00016610","CLASSIFICATION_TYPE":"U","BSTAR":"-0.00002398900000"},{"LAUNCH_DATE":"2020-08-07","MEAN_ANOMALY":"292.1123","EPHEMERIS_TYPE":"0","EPOCH":"2022-05-02T18:10:08.927328","MEAN_ELEMENT_THEORY":"SGP4","TLE_LINE2":"2 46067  53.0552 292.5854 0001503  68.0026 292.1123 15.06390804 97250","GP_ID":"202553135","SEMIMAJOR_AXIS":"6925.377","PERIOD":"95.593","APOAPSIS":"548.283","DECAY_DATE":null,"MEAN_MOTION":"15.06390804","REV_AT_EPOCH":"9725","ELEMENT_SET_NO":"999","INCLINATION":"53.0552","SITE":"AFETR","MEAN_MOTION_DOT":"0.00000426","RA_OF_ASC_NODE":"292.5854","NORAD_CAT_ID":"46067","OBJECT_TYPE":"PAYLOAD","RCS_SIZE":"LARGE","BSTAR":"0.00004749100000","CLASSIFICATION_TYPE":"U","OBJECT_ID":"2020-055AS","ECCENTRICITY":"0.00015030","MEAN_MOTION_DDOT":"0.0000000000000","ARG_OF_PERICENTER":"68.0026","FILE":"3426306","CENTER_NAME":"EARTH","COUNTRY_CODE":"US","REF_FRAME":"TEME","PERIAPSIS":"546.201","OBJECT_NAME":"STARLINK-1529","TIME_SYSTEM":"UTC","TLE_LINE1":"1 46067U 20055AS  22122.75704777  .00000426  00000-0  47491-4 0  9999"},{"COUNTRY_CODE":"US","CENTER_NAME":"EARTH","REF_FRAME":"TEME","PERIAPSIS":"546.074","TLE_LINE1":"1 46068U 20055AT  22122.83444642  .00001174  00000-0  97703-4 0  9993","TIME_SYSTEM":"UTC","OBJECT_NAME":"STARLINK-1532","CLASSIFICATION_TYPE":"U","BSTAR":"0.00009770300000","MEAN_MOTION_DDOT":"0.0000000000000","OBJECT_ID":"2020-055AT","ECCENTRICITY":"0.00016610","ARG_OF_PERICENTER":"58.0853","FILE":"3426306","MEAN_MOTION_DOT":"0.00001174","SITE":"AFETR","DECAY_DATE":null,"REV_AT_EPOCH":"9726","ELEMENT_SET_NO":"999","MEAN_MOTION":"15.06396531","INCLINATION":"53.0556","RA_OF_ASC_NODE":"292.2340","RCS_SIZE":"LARGE","NORAD_CAT_ID":"46068","OBJECT_TYPE":"PAYLOAD","MEAN_ANOMALY":"302.0297","LAUNCH_DATE":"2020-08-07","MEAN_ELEMENT_THEORY":"SGP4","EPOCH":"2022-05-02T20:01:36.170688","EPHEMERIS_TYPE":"0","PERIOD":"95.592","GP_ID":"202553385","TLE_LINE2":"2 46068  53.0556 292.2340 0001661  58.0853 302.0297 15.06396531 97261","SEMIMAJOR_AXIS":"6925.359","APOAPSIS":"548.374"},{"BSTAR":"0.00045195000000","CLASSIFICATION_TYPE":"U","ECCENTRICITY":"0.00015550","OBJECT_ID":"2020-055AU","MEAN_MOTION_DDOT":"0.0000000000000","ARG_OF_PERICENTER":"70.7764","FILE":"3426306","COUNTRY_CODE":"US","REF_FRAME":"TEME","CENTER_NAME":"EARTH","PERIAPSIS":"546.149","OBJECT_NAME":"STARLINK-1533","TIME_SYSTEM":"UTC","TLE_LINE1":"1 46069U 20055AU  22122.84919611  .00006456  00000-0  45195-3 0  9993","LAUNCH_DATE":"2020-08-07","MEAN_ANOMALY":"289.3393","EPOCH":"2022-05-02T20:22:50.543904","EPHEMERIS_TYPE":"0","MEAN_ELEMENT_THEORY":"SGP4","TLE_LINE2":"2 46069  53.0548 292.1657 0001555  70.7764 289.3393 15.06396011 97275","GP_ID":"202554636","SEMIMAJOR_AXIS":"6925.361","PERIOD":"95.592","APOAPSIS":"548.303","DECAY_DATE":null,"REV_AT_EPOCH":"9727","ELEMENT_SET_NO":"999","INCLINATION":"53.0548","MEAN_MOTION":"15.06396011","SITE":"AFETR","MEAN_MOTION_DOT":"0.00006456","RA_OF_ASC_NODE":"292.1657","OBJECT_TYPE":"PAYLOAD","NORAD_CAT_ID":"46069","RCS_SIZE":"LARGE"},{"SITE":"AFETR","MEAN_MOTION_DOT":"0.00002652","DECAY_DATE":null,"INCLINATION":"53.0565","REV_AT_EPOCH":"9727","ELEMENT_SET_NO":"999","MEAN_MOTION":"15.06399686","RCS_SIZE":"LARGE","OBJECT_TYPE":"PAYLOAD","NORAD_CAT_ID":"46070","RA_OF_ASC_NODE":"292.1017","MEAN_ELEMENT_THEORY":"SGP4","EPOCH":"2022-05-02T20:44:03.462144","EPHEMERIS_TYPE":"0","MEAN_ANOMALY":"282.2244","LAUNCH_DATE":"2020-08-07","APOAPSIS":"548.255","PERIOD":"95.592","SEMIMAJOR_AXIS":"6925.350","TLE_LINE2":"2 46070  53.0565 292.1017 0001502  77.8913 282.2244 15.06399686 97270","GP_ID":"202554882","PERIAPSIS":"546.174","COUNTRY_CODE":"US","REF_FRAME":"TEME","CENTER_NAME":"EARTH","TIME_SYSTEM":"UTC","TLE_LINE1":"1 46070U 20055AV  22122.86392896  .00002652  00000-0  19688-3 0  9999","OBJECT_NAME":"STARLINK-1536","MEAN_MOTION_DDOT":"0.0000000000000","ECCENTRICITY":"0.00015020","OBJECT_ID":"2020-055AV","CLASSIFICATION_TYPE":"U","BSTAR":"0.00019688000000","FILE":"3426306","ARG_OF_PERICENTER":"77.8913"}];
